0 FENGYUN 1C DEB
1 30145U 99025TA  13282.48433932  .00002237  00000-0  17878-2 0  1416
2 30145 099.3235 268.8773 0121532 024.3975 093.0441 13.88589668340898
0 FENGYUN 1C DEB
1 30145U 99025TA  13285.93012765  .00002598  00000-0  20703-2 0  1439
2 30145 099.3230 272.3221 0121411 015.1690 038.3203 13.88602866341377
0 FENGYUN 1C DEB
1 30145U 99025TA  13287.66061346  .00003429  00000-0  27205-2 0  1449
2 30145 099.3228 274.0523 0121346 010.6348 048.8850 13.88610793341614
0 FENGYUN 1C DEB
1 30145U 99025TA  13288.82494454  .00003195  00000-0  25372-2 0  1452
2 30145 099.3230 275.2166 0121310 007.5566 109.3429 13.88618234341771
0 FENGYUN 1C DEB
1 30145U 99025TA  13290.19619512  .00003147  00000-0  24999-2 0  1461
2 30145 099.3233 276.5878 0121254 003.9157 124.2391 13.88626255341968
0 FENGYUN 1C DEB
1 30145U 99025TA  13291.42836829  .00002955  00000-0  23493-2 0  1475
2 30145 099.3237 277.8198 0121176 000.6403 163.9252 13.88634797342138
0 FENGYUN 1C DEB
1 30145U 99025TA  13292.43479289  .00003112  00000-0  24719-2 0  1489
2 30145 099.3241 278.8260 0121105 357.9588 155.1210 13.88641113342270
0 FENGYUN 1C DEB
1 30145U 99025TA  13293.44358505  .00003328  00000-0  26408-2 0  1495
2 30145 099.3244 279.8347 0121028 355.2619 158.1822 13.88646236342419
0 FENGYUN 1C DEB
1 30145U 99025TA  13294.86621571  .00003401  00000-0  26983-2 0  1500
2 30145 099.3247 281.2574 0120946 351.5024 070.0550 13.88654013342612
0 FENGYUN 1C DEB
1 30145U 99025TA  13295.87428363  .00003649  00000-0  28918-2 0  1511
2 30145 099.3249 282.2655 0120884 348.8300 069.5228 13.88659901342753
